ISS (ZARYA)             
1 25544U 98067A   18071.70991576  .00002716  00000-0  48084-4 0  9995
2 25544  51.6420 139.6732 0001880 178.1916 325.8769 15.54223294103518
TIANGONG 1              
1 37820U 11053A   18071.43843203  .00262954  42686-4  22320-3 0  9994
2 37820  42.7487 328.0324 0017106 229.4761 300.3190 16.12386309370692
AGGIESAT 4              
1 41313U 98067HP  18071.01090851  .37535990  12794-4  22365-3 0  9992
2 41313  51.6166  39.7363 0003024 270.6416  89.8040 16.54059622121479
FLOCK 2E'-1             
1 41479U 98067HZ  18071.45041002  .00098209  14949-4  26343-3 0  9998
2 41479  51.6283  69.3445 0004243  50.0224 310.1156 15.94353548104233
FLOCK 2E'-3             
1 41480U 98067JA  18071.22334369  .00064512  12671-4  21829-3 0  9990
2 41480  51.6211  72.2820 0003199  68.9792 291.1556 15.90247704104169
FLOCK 2E-1              
1 41483U 98067JD  18071.16982877  .00038280  00000-0  17748-3 0  9996
2 41483  51.6320  79.7316 0002715  47.6579 312.4653 15.83043165103920
FLOCK 2E-3              
1 41486U 98067JG  18071.19246677  .00206991  27470-4  56971-3 0  9994
2 41486  51.6269  77.4816 0005628  71.1278 289.0339 15.93513140103970
FLOCK 2E-4              
1 41487U 98067JH  18070.31675234  .14212785  12501-4  82846-3 0  9995
2 41487  51.6109  75.1635 0003380  16.6517 345.1183 16.41744848103922
FLOCK 2E-5              
1 41564U 98067JN  18071.16419428  .00025404  00000-0  14711-3 0  9994
2 41564  51.6266  87.1677 0002108  96.1437 263.9804 15.78411375101900
FLOCK 2E-7              
1 41565U 98067JP  18071.45583681  .00081700  13677-4  25144-3 0  9991
2 41565  51.6230  68.5472 0004819  72.1276 288.0256 15.91869371102070
FLOCK 2E'-5             
1 41567U 98067JR  18070.91611961  .00025668  00000-0  16035-3 0  9998
2 41567  51.6338  92.3734 0004167  73.2986 286.8471 15.76684337101684
FLOCK 2E'-6             
1 41568U 98067JS  18071.15901037  .00237391  32142-4  71535-3 0  9992
2 41568  51.6269  80.2424 0006676  76.6874 283.4877 15.91732513101893
FLOCK 2E'-8             
1 41569U 98067JT  18071.41502757  .00096514  14827-4  25852-3 0  9999
2 41569  51.6256  66.8075 0004767  57.2509 302.8958 15.94386709101971
FLOCK 2E-10             
1 41572U 98067JW  18059.08879125  .09590036  12472-4  58925-3 0  9996
2 41572  51.6219 132.2961 0002556 327.8609  33.2166 16.41347157 99987
FLOCK 2E-12             
1 41573U 98067JX  18062.65860353  .09928625  12431-4  80990-3 0  9998
2 41573  51.5922 110.2436 0003600   1.2289 358.7449 16.39031415100592
FLOCK 2E-11             
1 41574U 98067JY  18062.82927663  .08399169  12325-4  83007-3 0  9994
2 41574  51.5802 108.9826 0002045  91.6097 269.0366 16.37402810100624
FLOCK 2E'-9             
1 41575U 98067JZ  18070.94679928  .20696072  12478-4  12063-2 0  9994
2 41575  51.6104  58.7875 0003218 307.0775  52.9851 16.41747452102008
FLOCK 2E'-10            
1 41576U 98067KA  18047.65400982  .07293230  12279-4  11048-2 0  9994
2 41576  51.6201 187.1174 0004788 324.9504  35.0382 16.33417827 98126
FLOCK 2E'-11            
1 41577U 98067KB  18070.48609598  .17416888  12466-4  85478-3 0  9990
2 41577  51.6089  71.8929 0001695 227.7940 132.4139 16.43071472101519
FLOCK 2E'-12            
1 41578U 98067KC  18059.51962195  .07518372  12317-4  10697-2 0  9992
2 41578  51.6066 119.7414 0005837  20.9767 339.3048 16.34000311 99896
FLOCK 2E'-13            
1 41761U 98067KH  18071.13867659  .00082736  00000-0  49138-3 0  9995
2 41761  51.6336 110.5094 0001239 150.8665 209.2404 15.77289654 84907
FLOCK 2E'-14            
1 41762U 98067KJ  18071.14294999  .00015504  00000-0  13826-3 0  9992
2 41762  51.6354 113.6400 0003947 180.5957 179.5036 15.68643339 84864
FLOCK 2E'-16            
1 41763U 98067KK  18071.50510096  .00074613  00000-0  41672-3 0  9998
2 41763  51.6313 106.2425 0000223 346.9943  13.1052 15.78706196 84955
FLOCK 2E'-15            
1 41764U 98067KL  18070.76297712  .00013640  00000-0  12761-3 0  9993
2 41764  51.6360 117.1064 0003873 187.6188 172.4751 15.67584176 84745
TIANGONG-2              
1 41765U 16057A   18071.43424378  .00005079  00000-0  64197-4 0  9996
2 41765  42.7831 199.6806 0004731 299.0186 169.2339 15.60596761 84864
FLOCK 2E'-18            
1 41769U 98067KM  18070.54745002  .00014884  00000-0  13860-3 0  9996
2 41769  51.6361 117.9106 0002808 213.7817 146.3000 15.67613646 84712
FLOCK 2E'-17            
1 41776U 98067KN  18070.58057592  .00062278  00000-0  40907-3 0  9990
2 41776  51.6352 114.3789 0001510 279.9981  80.0848 15.75108936 84751
FLOCK 2E'-19            
1 41777U 98067KP  18071.56052009  .00089901  00000-0  49337-3 0  9996
2 41777  51.6290 100.5234 0002124  62.2785 297.8431 15.79020637 84988
FLOCK 2E'-20            
1 41782U 98067KQ  18070.53947500  .00025395  00000-0  18553-3 0  9990
2 41782  51.6342 109.5487 0001208 213.7690 146.3231 15.73069408 84643
BANXING-2               
1 41834U 16057H   18071.48466373  .00017063  00000-0  11162-3 0  9998
2 41834  42.7805 165.3600 0010345 345.4926  79.5016 15.75440885 79321
STARS-C                 
1 41895U 98067KR  18061.52581171  .12025536  12682-4  40347-3 0  9991
2 41895  51.6547 142.6546 0011212 346.6197  16.6343 16.43666377 68734
ITF-2                   
1 41932U 98067KU  18071.12602931  .00026565  00000-0  21676-3 0  9999
2 41932  51.6370 118.8176 0002474 179.6499 180.4501 15.70404620 65488
WASEDA-SAT3             
1 41933U 98067KV  18071.14546426  .00036338  00000-0  25614-3 0  9993
2 41933  51.6335 115.0998 0001597 178.9964 181.1038 15.73708815 65530
AOBA-VELOX 3            
1 41935U 98067KX  18070.56201417  .00036442  00000-0  27109-3 0  9995
2 41935  51.6362 119.5162 0001627 173.4760 186.6260 15.72441098 65524
LEMUR-2-REDFERN-GOES    
1 42059U 98067LA  18071.52730898  .00022654  00000-0  18875-3 0  9990
2 42059  51.6348 119.9386 0003621 228.5151 131.5536 15.69999169 57990
LEMUR-2-TRUTNA          
1 42067U 98067LC  18071.51178051  .00144452  00000-0  46271-3 0  9997
2 42067  51.6423 103.2181 0002361  37.0200 323.0968 15.90084860 58041
LEMUR-2-AUSTINTACIOUS   
1 42068U 98067LD  18071.13552868  .00033682  00000-0  24870-3 0  9991
2 42068  51.6358 118.8150 0002811 217.0239 143.0565 15.72655216 57905
LEMUR-2-TRUTNAHD        
1 42069U 98067LE  18071.17306037  .00029891  00000-0  23799-3 0  9997
2 42069  51.6360 120.6004 0002934 225.2507 134.8252 15.70924388 57934
HAVELSAT                
1 42700U 98067LH  18071.50642854  .00018613  00000-0  18242-3 0  9993
2 42700  51.6368 127.3492 0003381 261.1023  98.9590 15.66138098 46841
SOMP 2                  
1 42701U 98067LJ  18071.51032244  .00018241  00000-0  18361-3 0  9990
2 42701  51.6367 128.1247 0003461 259.6988 100.3617 15.65481649 46827
COLUMBIA                
1 42702U 98067LK  18066.37622415  .22640365  12480-4  12628-2 0  9994
2 42702  51.6147 131.6862 0001623 340.6009  19.7898 16.42105255 46241
SGSAT                   
1 42703U 98067LL  18071.53712501  .00092123  00000-0  44328-3 0  9998
2 42703  51.6330 116.1597 0002920  33.9408 326.1780 15.81880067 46906
CXBN-2                  
1 42704U 98067LM  18071.37587457  .00019826  00000-0  19703-3 0  9999
2 42704  51.6373 128.7368 0000786 129.9557 230.1507 15.65741998 46731
ICECUBE                 
1 42705U 98067LN  18071.53354657  .00030304  00000-0  25143-3 0  9991
2 42705  51.6410 124.5888 0000895 121.0575 239.0511 15.69926366 46864
PHOENIX                 
1 42706U 98067LP  18071.37662739  .00015712  00000-0  16097-3 0  9991
2 42706  51.6367 128.7352 0000257  95.5100 264.5925 15.65164508 46724
X-CUBESAT               
1 42707U 98067LQ  18071.51077108  .00021043  00000-0  20394-3 0  9997
2 42707  51.6344 127.3445 0000397  42.2798 317.8228 15.66328357 46740
QBEE50-LTU-OC           
1 42708U 98067LR  18071.54350280  .00016719  00000-0  16631-3 0  9999
2 42708  51.6368 127.5847 0000277  52.5311 307.5710 15.65855685 46703
ALTAIR PATHFINDER       
1 42711U 98067LS  18071.46284665  .00010985  00000-0  13037-3 0  9993
2 42711  51.6370 132.3084 0003148 168.2460 191.8608 15.61755017 46341
SHARC                   
1 42712U 98067LT  18071.54509135  .00008183  00000-0  10280-3 0  9999
2 42712  51.6389 132.8941 0001599 169.9535 190.1490 15.60673026 46583
ZA-AEROSAT              
1 42713U 98067LU  18071.52180765  .00014421  00000-0  15476-3 0  9996
2 42713  51.6360 129.6971 0001366 139.9759 220.1337 15.64064680 46383
LINK                    
1 42714U 98067LV  18071.36853776  .00034299  00000-0  28272-3 0  9991
2 42714  51.6325 125.6125 0000978  85.2221 274.8887 15.70018638 46539
CSUNSAT 1               
1 42715U 98067LW  18071.37635304  .00016938  00000-0  17856-3 0  9994
2 42715  51.6372 130.2367 0002933 154.4821 205.6319 15.64371165 46363
UPSAT                   
1 42716U 98067LX  18071.36864916  .00027115  00000-0  24016-3 0  9992
2 42716  51.6357 126.4113 0001997 284.3286  75.7489 15.68396253 46543
SPACECUBE               
1 42717U 98067LY  18071.37514439  .00020065  00000-0  19909-3 0  9998
2 42717  51.6356 128.7100 0002176 270.0169  90.0577 15.65773312 45758
HOOPOE                  
1 42718U 98067LZ  18071.52889009  .00019510  00000-0  18353-3 0  9999
2 42718  51.6365 126.7398 0001925 276.1113  83.9664 15.67129128 45797
CHALLENGER              
1 42721U 98067MA  18071.40136076  .00042253  00000-0  31291-3 0  9995
2 42721  51.6340 123.5808 0002569 256.9904 103.0808 15.72474938 45527
NJUST-1                 
1 42722U 98067MB  18071.53132873  .00013151  00000-0  14545-3 0  9999
2 42722  51.6371 130.5185 0004761 232.2166 127.8398 15.63378030 45446
UNSW-ECO                
1 42723U 98067MC  18071.36672816  .00025236  00000-0  23339-3 0  9995
2 42723  51.6379 127.9228 0003556 237.5630 122.5023 15.67370288 45446
DUTHSAT                 
1 42724U 98067MD  18071.53197970  .00036412  00000-0  28047-3 0  9997
2 42724  51.6344 123.7272 0002142 262.7205  97.3549 15.71614010 45430
LILACSAT-1              
1 42725U 98067ME  18071.37510199  .00019752  00000-0  20369-3 0  9999
2 42725  51.6369 130.2257 0003586 237.7054 122.3594 15.64807170 45332
NSIGHT-1                
1 42726U 98067MF  18071.37467846  .00007375  00000-0  96174-4 0  9996
2 42726  51.6390 134.7505 0004844 232.3418 127.7136 15.59852361 45286
SNUSAT-1                
1 42727U 98067MG  18071.38078896  .00018863  00000-0  19532-3 0  9997
2 42727  51.6354 130.2294 0005122 187.7714 172.3202 15.64732644 45305
QBITO                   
1 42728U 98067MH  18071.53554286  .00018172  00000-0  18066-3 0  9991
2 42728  51.6388 128.3302 0001434 261.4243  98.6590 15.65801338 45184
AALTO-2                 
1 42729U 98067MJ  18071.52748529  .00017977  00000-0  17779-3 0  9998
2 42729  51.6369 128.2440 0001405 262.3706  97.7130 15.65940952 45195
SUSAT                   
1 42730U 98067MK  18071.51574623  .00017224  00000-0  17554-3 0  9997
2 42730  51.6364 128.9060 0001523 251.3103 108.7727 15.65217228 45173
I-INSPIRE II            
1 42731U 98067ML  18071.51941898  .00024090  00000-0  21847-3 0  9999
2 42731  51.6357 126.6474 0003862 167.7437 192.3654 15.67883102 45257
POLYITAN-2-SAU          
1 42732U 98067MM  18071.37763475  .00021856  00000-0  21285-3 0  9990
2 42732  51.6362 128.7167 0004372 167.9044 192.2057 15.66174649 45219
SNUSAT-1B               
1 42733U 98067MN  18071.51708713  .00017444  00000-0  17747-3 0  9997
2 42733  51.6364 128.9062 0004592 173.3779 186.7278 15.65245159 45226
EXALTA-1                
1 42734U 98067MP  18071.52377400  .00023946  00000-0  21660-3 0  9997
2 42734  51.6344 126.6700 0004544 204.7963 155.2815 15.67948136 45203
AOXIANG-1               
1 42735U 98067MQ  18071.51259911  .00013790  00000-0  15105-3 0  9996
2 42735  51.6364 130.3789 0005207 228.4548 131.6001 15.63576435 46575
BEEAGLESAT              
1 42736U 98067MR  18071.51377600  .00015464  00000-0  16273-3 0  9990
2 42736  51.6359 129.6329 0004831 228.5196 131.5385 15.64492682 45275
ATLANTIS                
1 42737U 98067MS  18071.48699518  .00298683  45863-4  77489-3 0  9994
2 42737  51.6231 111.9295 0004911  27.0539 333.0724 15.94537887 45392
SOYUZ-MS 06             
1 42937U 17054A   18058.64801626  .00002063  00000-0  38351-4 0  9992
2 42937  51.6402 204.7914 0003113 133.9046 319.3314 15.54160216101485
PROGRESS-MS 07          
1 42971U 17065A   18070.55195098  .00001786  00000-0  34106-4 0  9990
2 42971  51.6417 145.4458 0002424 172.3444 328.3932 15.54212652 23050
SIMPL                   
1 42983U 98067NF  18071.43107748  .00003439  00000-0  56328-4 0  9994
2 42983  51.6420 140.1829 0004360 184.7774 262.8349 15.55531014 21155
ECAMSAT                 
1 43019U 98067NG  18071.40252227  .00005118  00000-0  79100-4 0  9994
2 43019  51.6399 140.1787 0004905 166.8332 193.2788 15.55983609103471
ASTERIA                 
1 43020U 98067NH  18071.43020679  .00010354  00000-0  14713-3 0  9999
2 43020  51.6399 139.6206 0002143 154.8878 205.2218 15.57020726 17409
DELLINGR (RBLE)         
1 43021U 98067NJ  18071.46259123  .00005183  00000-0  79568-4 0  9995
2 43021  51.6397 139.8322 0002068 152.9495 207.1604 15.56133134 17406
TECHEDSAT 6             
1 43026U 98067NK  18071.49747595  .00089025  00000-0  76322-3 0  9999
2 43026  51.6350 134.7920 0003310 356.2508   3.8463 15.68647096 17373
OSIRIS-3U               
1 43027U 98067NL  18071.53507503  .00017882  00000-0  22862-3 0  9990
2 43027  51.6386 138.0660 0002340 127.8643 232.2562 15.59305853 17319
SOYUZ-MS 07             
1 43063U 17081A   18070.55195098  .00001786  00000-0  34106-4 0  9991
2 43063  51.6417 145.4458 0002424 172.3444 328.3932 15.54212652103333
PROGRESS-MS 08          
1 43211U 18019A   18070.55195098  .00001786  00000-0  34106-4 0  9998
2 43211  51.6417 145.4458 0002424 172.3444 328.3932 15.54212652  4080
